[{"OBJECT_NAME":"STARLINK-2629","OBJECT_ID":"2021-044BA","EPOCH":"2026-03-09T23:39:19.239840","MEAN_MOTION":15.29350904,"ECCENTRICITY":0.00017417,"INCLINATION":53.1561,"RA_OF_ASC_NODE":73.734,"ARG_OF_PERICENTER":119.9773,"MEAN_ANOMALY":240.14,"EPHEMERIS_TYPE":0,"CLASSIFICATION_TYPE":"U","NORAD_CAT_ID":48686,"ELEMENT_SET_NO":999,"REV_AT_EPOCH":26440,"BSTAR":0.00012458907,"MEAN_MOTION_DOT":3.24e-5,"MEAN_MOTION_DDOT":0},{"OBJECT_NAME":"KUIPER-00209","OBJECT_ID":"2026-030N","EPOCH":"2026-03-09T14:49:43.575744","MEAN_MOTION":15.3016195,"ECCENTRICITY":0.0012191,"INCLINATION":51.8838,"RA_OF_ASC_NODE":220.0775,"ARG_OF_PERICENTER":59.1967,"MEAN_ANOMALY":301.0215,"EPHEMERIS_TYPE":0,"CLASSIFICATION_TYPE":"U","NORAD_CAT_ID":67776,"ELEMENT_SET_NO":999,"REV_AT_EPOCH":507,"BSTAR":0.0011963,"MEAN_MOTION_DOT":0.00035298,"MEAN_MOTION_DDOT":0}]
