STARLINK-2629           
1 48686U 21044BA  26068.98563934  .00003240  00000+0  12459-3 0  9994
2 48686  53.1561  73.7340 0001742 119.9773 240.1400 15.29350904264405
KUIPER-00209            
1 67776U 26030N   26068.61786546  .00035298  00000+0  11963-2 0  9997
2 67776  51.8838 220.0775 0012191  59.1967 301.0215 15.30161950  5077
